{
  "norad_id": 63854,
  "name": "STARLINK-34015",
  "history": [
    {
      "epoch": "2026-05-03T07:45:27.248256Z",
      "apogee_km": 483.8112189263584,
      "perigee_km": 482.2206664511832,
      "latitude_deg": 1.1594444344086368e-05,
      "longitude_deg": 152.09601033658905,
      "height_km": 482.81558235748923,
      "semi_major_axis_km": 6861.15294268877,
      "eccentricity": 0.00011591,
      "inclination_deg": 42.9996,
      "raan_deg": 129.6881,
      "arg_perigee_deg": 268.3289,
      "mean_anomaly_deg": 91.743,
      "mean_motion_rev_day": 15.27591072
    },
    {
      "epoch": "2026-05-04T16:42:44.208000Z",
      "apogee_km": 484.6091913886994,
      "perigee_km": 481.3954337346968,
      "latitude_deg": -6.128921021709701e-05,
      "longitude_deg": 8.66716059674769,
      "height_km": 482.4798203443766,
      "semi_major_axis_km": 6861.139312561698,
      "eccentricity": 0.0002342,
      "inclination_deg": 43.0002,
      "raan_deg": 121.9334,
      "arg_perigee_deg": 280.7584,
      "mean_anomaly_deg": 79.3003,
      "mean_motion_rev_day": 15.27595624
    }
  ]
}